{
  "type": "FeatureCollection",
  "features": [
    {
      "type": "Feature",
      "properties": {
        "norad_id": 66606,
        "name": "STARLINK-36063",
        "group": "last-30-days",
        "lat": 25.134968272479323,
        "lon": 17.535878514552312,
        "alt_km": 362.3895217696072,
        "timestamp": "2025-12-06T18:50:08.956459+00:00",
        "meta_object_name": "STARLINK-36063",
        "meta_object_id": "2025-270U",
        "meta_epoch": "2025-12-06T06:00:02.000160",
        "meta_mean_motion": 15.69882255,
        "meta_eccentricity": 0.00018095,
        "meta_inclination": 42.9989,
        "meta_ra_of_asc_node": 230.9841,
        "meta_arg_of_pericenter": 267.4719,
        "meta_mean_anomaly": 89.9087,
        "meta_ephemeris_type": 0,
        "meta_classification_type": "U",
        "meta_norad_cat_id": 66606,
        "meta_element_set_no": 999,
        "meta_rev_at_epoch": 335,
        "meta_bstar": -0.017254377,
        "meta_mean_motion_dot": -0.01889465,
        "meta_mean_motion_ddot": 0,
        "tle_line1": "1 66606U 25270U   25340.25002315 -.01889465  00000+0 -17254-1 0  9994",
        "tle_line2": "2 66606  42.9989 230.9841 0001809 267.4719  89.9087 15.69882255  3351"
      },
      "geometry": {
        "type": "Point",
        "coordinates": [
          17.535878514552312,
          25.134968272479323
        ]
      }
    },
    {
      "type": "Feature",
      "properties": {
        "norad_id": 66607,
        "name": "STARLINK-35993",
        "group": "last-30-days",
        "lat": 26.25454496095366,
        "lon": 15.813240604543523,
        "alt_km": 362.15660241070054,
        "timestamp": "2025-12-06T18:50:08.956485+00:00",
        "meta_object_name": "STARLINK-35993",
        "meta_object_id": "2025-270V",
        "meta_epoch": "2025-12-06T06:00:02.000160",
        "meta_mean_motion": 15.6988288,
        "meta_eccentricity": 0.00017126,
        "meta_inclination": 42.999,
        "meta_ra_of_asc_node": 230.9895,
        "meta_arg_of_pericenter": 265.6051,
        "meta_mean_anomaly": 89.8571,
        "meta_ephemeris_type": 0,
        "meta_classification_type": "U",
        "meta_norad_cat_id": 66607,
        "meta_element_set_no": 999,
        "meta_rev_at_epoch": 325,
        "meta_bstar": -0.01725015,
        "meta_mean_motion_dot": -0.01889024,
        "meta_mean_motion_ddot": 0,
        "tle_line1": "1 66607U 25270V   25340.25002315 -.01889024  00000+0 -17250-1 0  9992",
        "tle_line2": "2 66607  42.9990 230.9895 0001712 265.6051  89.8571 15.69882880  3255"
      },
      "geometry": {
        "type": "Point",
        "coordinates": [
          15.813240604543523,
          26.25454496095366
        ]
      }
    },
    {
      "type": "Feature",
      "properties": {
        "norad_id": 66608,
        "name": "STARLINK-36036",
        "group": "last-30-days",
        "lat": 23.994819112125246,
        "lon": 19.229050419937508,
        "alt_km": 362.5924636891523,
        "timestamp": "2025-12-06T18:50:08.956497+00:00",
        "meta_object_name": "STARLINK-36036",
        "meta_object_id": "2025-270W",
        "meta_epoch": "2025-12-06T06:00:02.000160",
        "meta_mean_motion": 15.69888064,
        "meta_eccentricity": 0.00018324,
        "meta_inclination": 42.9988,
        "meta_ra_of_asc_node": 230.9796,
        "meta_arg_of_pericenter": 269.6693,
        "meta_mean_anomaly": 89.6217,
        "meta_ephemeris_type": 0,
        "meta_classification_type": "U",
        "meta_norad_cat_id": 66608,
        "meta_element_set_no": 999,
        "meta_rev_at_epoch": 319,
        "meta_bstar": -0.017284277,
        "meta_mean_motion_dot": -0.01892801,
        "meta_mean_motion_ddot": 0,
        "tle_line1": "1 66608U 25270W   25340.25002315 -.01892801  00000+0 -17284-1 0  9997",
        "tle_line2": "2 66608  42.9988 230.9796 0001832 269.6693  89.6217 15.69888064  3190"
      },
      "geometry": {
        "type": "Point",
        "coordinates": [
          19.229050419937508,
          23.994819112125246
        ]
      }
    },
    {
      "type": "Feature",
      "properties": {
        "norad_id": 66609,
        "name": "STARLINK-36034",
        "group": "last-30-days",
        "lat": 22.83553326341541,
        "lon": 20.893832909374318,
        "alt_km": 362.6737998270528,
        "timestamp": "2025-12-06T18:50:08.956508+00:00",
        "meta_object_name": "STARLINK-36034",
        "meta_object_id": "2025-270X",
        "meta_epoch": "2025-12-06T06:00:02.000160",
        "meta_mean_motion": 15.69885463,
        "meta_eccentricity": 0.00016669,
        "meta_inclination": 42.999,
        "meta_ra_of_asc_node": 230.9753,
        "meta_arg_of_pericenter": 269.8521,
        "meta_mean_anomaly": 91.3604,
        "meta_ephemeris_type": 0,
        "meta_classification_type": "U",
        "meta_norad_cat_id": 66609,
        "meta_element_set_no": 999,
        "meta_rev_at_epoch": 319,
        "meta_bstar": -0.01727322,
        "meta_mean_motion_dot": -0.01891415,
        "meta_mean_motion_ddot": 0,
        "tle_line1": "1 66609U 25270X   25340.25002315 -.01891415  00000+0 -17273-1 0  9996",
        "tle_line2": "2 66609  42.9990 230.9753 0001666 269.8521  91.3604 15.69885463  3194"
      },
      "geometry": {
        "type": "Point",
        "coordinates": [
          20.893832909374318,
          22.83553326341541
        ]
      }
    },
    {
      "type": "Feature",
      "properties": {
        "norad_id": 66610,
        "name": "STARLINK-35680",
        "group": "last-30-days",
        "lat": 21.661525585746773,
        "lon": 22.5259230270898,
        "alt_km": 362.7642264866736,
        "timestamp": "2025-12-06T18:50:08.956520+00:00",
        "meta_object_name": "STARLINK-35680",
        "meta_object_id": "2025-270Y",
        "meta_epoch": "2025-12-06T06:00:02.000160",
        "meta_mean_motion": 15.69883688,
        "meta_eccentricity": 0.00016836,
        "meta_inclination": 42.999,
        "meta_ra_of_asc_node": 230.9702,
        "meta_arg_of_pericenter": 267.2951,
        "meta_mean_anomaly": 95.8341,
        "meta_ephemeris_type": 0,
        "meta_classification_type": "U",
        "meta_norad_cat_id": 66610,
        "meta_element_set_no": 999,
        "meta_rev_at_epoch": 346,
        "meta_bstar": -0.017247242,
        "meta_mean_motion_dot": -0.01888777,
        "meta_mean_motion_ddot": 0,
        "tle_line1": "1 66610U 25270Y   25340.25002315 -.01888777  00000+0 -17247-1 0  9996",
        "tle_line2": "2 66610  42.9990 230.9702 0001683 267.2951  95.8341 15.69883688  3462"
      },
      "geometry": {
        "type": "Point",
        "coordinates": [
          22.5259230270898,
          21.661525585746773
        ]
      }
    },
    {
      "type": "Feature",
      "properties": {
        "norad_id": 66611,
        "name": "STARLINK-35583",
        "group": "last-30-days",
        "lat": 20.470513648318423,
        "lon": 24.133129967343624,
        "alt_km": 362.93862862951755,
        "timestamp": "2025-12-06T18:50:08.956533+00:00",
        "meta_object_name": "STARLINK-35583",
        "meta_object_id": "2025-270Z",
        "meta_epoch": "2025-12-06T06:00:02.000160",
        "meta_mean_motion": 15.69883143,
        "meta_eccentricity": 0.00016826,
        "meta_inclination": 42.999,
        "meta_ra_of_asc_node": 230.9652,
        "meta_arg_of_pericenter": 268.2856,
        "meta_mean_anomaly": 96.7617,
        "meta_ephemeris_type": 0,
        "meta_classification_type": "U",
        "meta_norad_cat_id": 66611,
        "meta_element_set_no": 999,
        "meta_rev_at_epoch": 346,
        "meta_bstar": -0.017245121,
        "meta_mean_motion_dot": -0.01888531,
        "meta_mean_motion_ddot": 0,
        "tle_line1": "1 66611U 25270Z   25340.25002315 -.01888531  00000+0 -17245-1 0  9993",
        "tle_line2": "2 66611  42.9990 230.9652 0001682 268.2856  96.7617 15.69883143  3463"
      },
      "geometry": {
        "type": "Point",
        "coordinates": [
          24.133129967343624,
          20.470513648318423
        ]
      }
    },
    {
      "type": "Feature",
      "properties": {
        "norad_id": 66612,
        "name": "STARLINK-36039",
        "group": "last-30-days",
        "lat": 19.265623859112967,
        "lon": 25.714273091354414,
        "alt_km": 363.09728175491,
        "timestamp": "2025-12-06T18:50:08.956543+00:00",
        "meta_object_name": "STARLINK-36039",
        "meta_object_id": "2025-270AA",
        "meta_epoch": "2025-12-06T06:00:02.000160",
        "meta_mean_motion": 15.69884438,
        "meta_eccentricity": 0.00017117,
        "meta_inclination": 42.999,
        "meta_ra_of_asc_node": 230.9601,
        "meta_arg_of_pericenter": 268.1481,
        "meta_mean_anomaly": 98.8153,
        "meta_ephemeris_type": 0,
        "meta_classification_type": "U",
        "meta_norad_cat_id": 66612,
        "meta_element_set_no": 999,
        "meta_rev_at_epoch": 335,
        "meta_bstar": -0.017258943,
        "meta_mean_motion_dot": -0.01889989,
        "meta_mean_motion_ddot": 0,
        "tle_line1": "1 66612U 25270AA  25340.25002315 -.01889989  00000+0 -17259-1 0  9997",
        "tle_line2": "2 66612  42.9990 230.9601 0001711 268.1481  98.8153 15.69884438  3358"
      },
      "geometry": {
        "type": "Point",
        "coordinates": [
          25.714273091354414,
          19.265623859112967
        ]
      }
    }
  ]
}